[{"OBJECT_NAME":"STARLINK-32642","OBJECT_ID":"2024-229V","EPOCH":"2026-03-09T13:21:28.450656","MEAN_MOTION":15.27582698,"ECCENTRICITY":0.00016186,"INCLINATION":42.9996,"RA_OF_ASC_NODE":271.2385,"ARG_OF_PERICENTER":234.8632,"MEAN_ANOMALY":125.2068,"EPHEMERIS_TYPE":0,"CLASSIFICATION_TYPE":"U","NORAD_CAT_ID":62211,"ELEMENT_SET_NO":999,"REV_AT_EPOCH":7054,"BSTAR":0.0010623194,"MEAN_MOTION_DOT":0.00029089,"MEAN_MOTION_DDOT":0},{"OBJECT_NAME":"FENGYUN 1C DEB","OBJECT_ID":"1999-025BRA","EPOCH":"2026-03-07T21:38:03.570144","MEAN_MOTION":15.14550758,"ECCENTRICITY":0.01045185,"INCLINATION":98.8762,"RA_OF_ASC_NODE":52.6466,"ARG_OF_PERICENTER":91.2586,"MEAN_ANOMALY":270.0618,"EPHEMERIS_TYPE":0,"CLASSIFICATION_TYPE":"U","NORAD_CAT_ID":31346,"ELEMENT_SET_NO":999,"REV_AT_EPOCH":773,"BSTAR":0.0014203897,"MEAN_MOTION_DOT":0.00030047,"MEAN_MOTION_DDOT":0}]
